{"type": "FeatureCollection", "features": [ {"type": "Feature", "properties": {"norad_id": 54234, "name": "NOAA 21 (JPSS-2)", "group": "weather", "lat": -80.30435761857701, "lon": 49.648224954106915, "alt_km": 834.6950585797786, "timestamp": "2025-12-23T18:59:31.637063+00:00", "meta": {"OBJECT_NAME": "NOAA 21 (JPSS-2)", "OBJECT_ID": "2022-150A", "EPOCH": "2025-12-23T04:12:37.223712", "MEAN_MOTION": 14.19526903, "ECCENTRICITY": 0.00017503, "INCLINATION": 98.7477, "RA_OF_ASC_NODE": 293.3541, "ARG_OF_PERICENTER": 16.8851, "MEAN_ANOMALY": 343.2383, "EPHEMERIS_TYPE": 0, "CLASSIFICATION_TYPE": "U", "NORAD_CAT_ID": 54234, "ELEMENT_SET_NO": 999, "REV_AT_EPOCH": 16157, "BSTAR": 5.9309753e-05, "MEAN_MOTION_DOT": 8.1e-07, "MEAN_MOTION_DDOT": 0}, "tle": {"line1": "1 54234U 22150A   25357.17543083  .00000081  00000+0  59310-4 0  9991", "line2": "2 54234  98.7477 293.3541 0001750  16.8851 343.2383 14.19526903161577"}}, "geometry": {"type": "Point", "coordinates": [49.648224954106915, -80.30435761857701]}}, {"type": "Feature", "properties": {"norad_id": 54743, "name": "METEOSAT-12 (MTG-I1)", "group": "weather", "lat": -0.0968558289323963, "lon": 17.15000349737912, "alt_km": 35788.76054945828, "timestamp": "2025-12-23T18:59:31.637073+00:00", "meta": {"OBJECT_NAME": "METEOSAT-12 (MTG-I1)", "OBJECT_ID": "2022-170C", "EPOCH": "2025-12-23T06:16:55.712352", "MEAN_MOTION": 1.00270796, "ECCENTRICITY": 0.00015576, "INCLINATION": 0.6976, "RA_OF_ASC_NODE": 25.3363, "ARG_OF_PERICENTER": 240.2744, "MEAN_ANOMALY": 280.3588, "EPHEMERIS_TYPE": 0, "CLASSIFICATION_TYPE": "U", "NORAD_CAT_ID": 54743, "ELEMENT_SET_NO": 999, "REV_AT_EPOCH": 1121, "BSTAR": 0, "MEAN_MOTION_DOT": 1.3e-07, "MEAN_MOTION_DDOT": 0}, "tle": {"line1": "1 54743U 22170C   25357.26175593  .00000013  00000+0  00000+0 0  9997", "line2": "2 54743   0.6976  25.3363 0001557 240.2744 280.3588  1.00270796 11217"}}, "geometry": {"type": "Point", "coordinates": [17.15000349737912, -0.0968558289323963]}}, {"type": "Feature", "properties": {"norad_id": 55973, "name": "TIANMU-1 03", "group": "weather", "lat": -20.287379818256298, "lon": 163.54935587237202, "alt_km": 446.0644807947974, "timestamp": "2025-12-23T18:59:31.637083+00:00", "meta": {"OBJECT_NAME": "TIANMU-1 03", "OBJECT_ID": "2023-039A", "EPOCH": "2025-12-23T08:10:23.557152", "MEAN_MOTION": 15.41220257, "ECCENTRICITY": 0.00038904, "INCLINATION": 97.5111, "RA_OF_ASC_NODE": 160.2902, "ARG_OF_PERICENTER": 30.8595, "MEAN_ANOMALY": 329.2879, "EPHEMERIS_TYPE": 0, "CLASSIFICATION_TYPE": "U", "NORAD_CAT_ID": 55973, "ELEMENT_SET_NO": 999, "REV_AT_EPOCH": 15369, "BSTAR": 0.00038053795, "MEAN_MOTION_DOT": 0.00015734, "MEAN_MOTION_DDOT": 0}, "tle": {"line1": "1 55973U 23039A   25357.34055043  .00015734  00000+0  38054-3 0  9994", "line2": "2 55973  97.5111 160.2902 0003890  30.8595 329.2879 15.41220257153698"}}, "geometry": {"type": "Point", "coordinates": [163.54935587237202, -20.287379818256298]}}, {"type": "Feature", "properties": {"norad_id": 55974, "name": "TIANMU-1 04", "group": "weather", "lat": 71.2474023434241, "lon": 2.7874481105929454, "alt_km": 434.3213718254847, "timestamp": "2025-12-23T18:59:31.637094+00:00", "meta": {"OBJECT_NAME": "TIANMU-1 04", "OBJECT_ID": "2023-039B", "EPOCH": "2025-12-23T06:03:58.140864", "MEAN_MOTION": 15.41560938, "ECCENTRICITY": 0.0004503, "INCLINATION": 97.5042, "RA_OF_ASC_NODE": 159.3868, "ARG_OF_PERICENTER": 24.1422, "MEAN_ANOMALY": 336.0035, "EPHEMERIS_TYPE": 0, "CLASSIFICATION_TYPE": "U", "NORAD_CAT_ID": 55974, "ELEMENT_SET_NO": 999, "REV_AT_EPOCH": 15368, "BSTAR": 0.0004156953, "MEAN_MOTION_DOT": 0.00017397, "MEAN_MOTION_DDOT": 0}, "tle": {"line1": "1 55974U 23039B   25357.25275626  .00017397  00000+0  41570-3 0  9990", "line2": "2 55974  97.5042 159.3868 0004503  24.1422 336.0035 15.41560938153681"}}, "geometry": {"type": "Point", "coordinates": [2.7874481105929454, 71.2474023434241]}}, {"type": "Feature", "properties": {"norad_id": 55975, "name": "TIANMU-1 05", "group": "weather", "lat": 55.317376734177586, "lon": -8.57803004704506, "alt_km": 436.72592127077496, "timestamp": "2025-12-23T18:59:31.637105+00:00", "meta": {"OBJECT_NAME": "TIANMU-1 05", "OBJECT_ID": "2023-039C", "EPOCH": "2025-12-23T07:32:56.166144", "MEAN_MOTION": 15.41176488, "ECCENTRICITY": 0.00040219, "INCLINATION": 97.5089, "RA_OF_ASC_NODE": 159.9431, "ARG_OF_PERICENTER": 49.3295, "MEAN_ANOMALY": 310.8301, "EPHEMERIS_TYPE": 0, "CLASSIFICATION_TYPE": "U", "NORAD_CAT_ID": 55975, "ELEMENT_SET_NO": 999, "REV_AT_EPOCH": 15367, "BSTAR": 0.00037946148, "MEAN_MOTION_DOT": 0.00015667, "MEAN_MOTION_DDOT": 0}, "tle": {"line1": "1 55975U 23039C   25357.31453896  .00015667  00000+0  37946-3 0  9995", "line2": "2 55975  97.5089 159.9431 0004021  49.3295 310.8301 15.41176488153675"}}, "geometry": {"type": "Point", "coordinates": [-8.57803004704506, 55.317376734177586]}}, {"type": "Feature", "properties": {"norad_id": 55976, "name": "TIANMU-1 06", "group": "weather", "lat": 79.60322068546627, "lon": 26.88046476534787, "alt_km": 432.2825285229692, "timestamp": "2025-12-23T18:59:31.637114+00:00", "meta": {"OBJECT_NAME": "TIANMU-1 06", "OBJECT_ID": "2023-039D", "EPOCH": "2025-12-23T06:06:35.636832", "MEAN_MOTION": 15.41612314, "ECCENTRICITY": 0.00042776, "INCLINATION": 97.5099, "RA_OF_ASC_NODE": 160.3552, "ARG_OF_PERICENTER": 43.6059, "MEAN_ANOMALY": 316.5524, "EPHEMERIS_TYPE": 0, "CLASSIFICATION_TYPE": "U", "NORAD_CAT_ID": 55976, "ELEMENT_SET_NO": 999, "REV_AT_EPOCH": 15368, "BSTAR": 0.00041344841, "MEAN_MOTION_DOT": 0.00017331, "MEAN_MOTION_DDOT": 0}, "tle": {"line1": "1 55976U 23039D   25357.25457913  .00017331  00000+0  41345-3 0  9991", "line2": "2 55976  97.5099 160.3552 0004277  43.6059 316.5524 15.41612314153689"}}, "geometry": {"type": "Point", "coordinates": [26.88046476534787, 79.60322068546627]}}, {"type": "Feature", "properties": {"norad_id": 56232, "name": "FENGYUN 3G", "group": "weather", "lat": 29.669374140514684, "lon": -161.01982754534941, "alt_km": 406.1233020851041, "timestamp": "2025-12-23T18:59:31.637123+00:00", "meta": {"OBJECT_NAME": "FENGYUN 3G", "OBJECT_ID": "2023-055A", "EPOCH": "2025-12-23T00:18:13.416192", "MEAN_MOTION": 15.54230372, "ECCENTRICITY": 0.00092801, "INCLINATION": 49.9923, "RA_OF_ASC_NODE": 174.4174, "ARG_OF_PERICENTER": 194.6693, "MEAN_ANOMALY": 165.4007, "EPHEMERIS_TYPE": 0, "CLASSIFICATION_TYPE": "U", "NORAD_CAT_ID": 56232, "ELEMENT_SET_NO": 999, "REV_AT_EPOCH": 15262, "BSTAR": 0.00048841065, "MEAN_MOTION_DOT": 0.00032207, "MEAN_MOTION_DDOT": 0}, "tle": {"line1": "1 56232U 23055A   25357.01265528  .00032207  00000+0  48841-3 0  9995", "line2": "2 56232  49.9923 174.4174 0009280 194.6693 165.4007 15.54230372152622"}}, "geometry": {"type": "Point", "coordinates": [-161.01982754534941, 29.669374140514684]}}, {"type": "Feature", "properties": {"norad_id": 57166, "name": "METEOR-M2 3", "group": "weather", "lat": -8.87382759797117, "lon": 52.49656847247886, "alt_km": 813.4660769527118, "timestamp": "2025-12-23T18:59:31.637133+00:00", "meta": {"OBJECT_NAME": "METEOR-M2 3", "OBJECT_ID": "2023-091A", "EPOCH": "2025-12-23T07:13:47.740800", "MEAN_MOTION": 14.240273, "ECCENTRICITY": 0.00033339, "INCLINATION": 98.6363, "RA_OF_ASC_NODE": 50.6555, "ARG_OF_PERICENTER": 336.415, "MEAN_ANOMALY": 23.6875, "EPHEMERIS_TYPE": 0, "CLASSIFICATION_TYPE": "U", "NORAD_CAT_ID": 57166, "ELEMENT_SET_NO": 999, "REV_AT_EPOCH": 12948, "BSTAR": 2.4218502e-05, "MEAN_MOTION_DOT": 1.2e-07, "MEAN_MOTION_DDOT": 0}, "tle": {"line1": "1 57166U 23091A   25357.30124700  .00000012  00000+0  24219-4 0  9993", "line2": "2 57166  98.6363  50.6555 0003333 336.4150  23.6875 14.24027300129480"}}, "geometry": {"type": "Point", "coordinates": [52.49656847247886, -8.87382759797117]}}, {"type": "Feature", "properties": {"norad_id": 57399, "name": "TIANMU-1 07", "group": "weather", "lat": -6.5051142396331, "lon": 48.23326293053884, "alt_km": 483.25364044875005, "timestamp": "2025-12-23T18:59:31.637142+00:00", "meta": {"OBJECT_NAME": "TIANMU-1 07", "OBJECT_ID": "2023-101A", "EPOCH": "2025-12-23T08:01:13.598688", "MEAN_MOTION": 15.28215213, "ECCENTRICITY": 0.00051145, "INCLINATION": 97.2857, "RA_OF_ASC_NODE": 46.9503, "ARG_OF_PERICENTER": 54.6449, "MEAN_ANOMALY": 305.5268, "EPHEMERIS_TYPE": 0, "CLASSIFICATION_TYPE": "U", "NORAD_CAT_ID": 57399, "ELEMENT_SET_NO": 999, "REV_AT_EPOCH": 13477, "BSTAR": 0.00027203049, "MEAN_MOTION_DOT": 7.41e-05, "MEAN_MOTION_DDOT": 0}, "tle": {"line1": "1 57399U 23101A   25357.33418517  .00007410  00000+0  27203-3 0  9992", "line2": "2 57399  97.2857  46.9503 0005114  54.6449 305.5268 15.28215213134774"}}, "geometry": {"type": "Point", "coordinates": [48.23326293053884, -6.5051142396331]}}, {"type": "Feature", "properties": {"norad_id": 57400, "name": "TIANMU-1 08", "group": "weather", "lat": 5.103489357048084, "lon": -132.15191605582987, "alt_km": 486.1939493087475, "timestamp": "2025-12-23T18:59:31.637151+00:00", "meta": {"OBJECT_NAME": "TIANMU-1 08", "OBJECT_ID": "2023-101B", "EPOCH": "2025-12-23T07:13:48.260064", "MEAN_MOTION": 15.28196336, "ECCENTRICITY": 0.00070716, "INCLINATION": 97.2846, "RA_OF_ASC_NODE": 46.7143, "ARG_OF_PERICENTER": 54.0639, "MEAN_ANOMALY": 306.1256, "EPHEMERIS_TYPE": 0, "CLASSIFICATION_TYPE": "U", "NORAD_CAT_ID": 57400, "ELEMENT_SET_NO": 999, "REV_AT_EPOCH": 13476, "BSTAR": 0.00027970366, "MEAN_MOTION_DOT": 7.619e-05, "MEAN_MOTION_DDOT": 0}, "tle": {"line1": "1 57400U 23101B   25357.30125301  .00007619  00000+0  27970-3 0  9990", "line2": "2 57400  97.2846  46.7143 0007071  54.0639 306.1256 15.28196336134769"}}, "geometry": {"type": "Point", "coordinates": [-132.15191605582987, 5.103489357048084]}}]}